{
  "type": "FeatureCollection",
  "features": [
    {
      "type": "Feature",
      "properties": {
        "norad_id": 67031,
        "name": "STARLINK-36150",
        "group": "last-30-days",
        "lat": -34.77379236956652,
        "lon": 0.1793572885735925,
        "alt_km": 314.0873299000714,
        "timestamp": "2025-12-20T22:39:09.409853+00:00",
        "meta_object_name": "STARLINK-36150",
        "meta_object_id": "2025-294B",
        "meta_epoch": "2025-12-20T14:00:03.000384",
        "meta_mean_motion": 15.87606948,
        "meta_eccentricity": 0.00016911,
        "meta_inclination": 42.9997,
        "meta_ra_of_asc_node": 134.2345,
        "meta_arg_of_pericenter": 273.3724,
        "meta_mean_anomaly": 61.1931,
        "meta_ephemeris_type": 0,
        "meta_classification_type": "U",
        "meta_norad_cat_id": 67031,
        "meta_element_set_no": 999,
        "meta_rev_at_epoch": 156,
        "meta_bstar": -0.0056089831,
        "meta_mean_motion_dot": -0.01357299,
        "meta_mean_motion_ddot": 0,
        "tle_line1": "1 67031U 25294B   25354.58336806 -.01357299  00000+0 -56090-2 0  9996",
        "tle_line2": "2 67031  42.9997 134.2345 0001691 273.3724  61.1931 15.87606948  1563"
      },
      "geometry": {
        "type": "Point",
        "coordinates": [
          0.1793572885735925,
          -34.77379236956652
        ]
      }
    },
    {
      "type": "Feature",
      "properties": {
        "norad_id": 67032,
        "name": "STARLINK-36131",
        "group": "last-30-days",
        "lat": -36.5586551803724,
        "lon": 4.728825369396382,
        "alt_km": 313.9106136349383,
        "timestamp": "2025-12-20T22:39:09.409862+00:00",
        "meta_object_name": "STARLINK-36131",
        "meta_object_id": "2025-294C",
        "meta_epoch": "2025-12-20T14:00:03.000384",
        "meta_mean_motion": 15.87677151,
        "meta_eccentricity": 0.00016346,
        "meta_inclination": 42.9997,
        "meta_ra_of_asc_node": 134.2243,
        "meta_arg_of_pericenter": 267.6416,
        "meta_mean_anomaly": 70.9532,
        "meta_ephemeris_type": 0,
        "meta_classification_type": "U",
        "meta_norad_cat_id": 67032,
        "meta_element_set_no": 999,
        "meta_rev_at_epoch": 137,
        "meta_bstar": -0.0056480235,
        "meta_mean_motion_dot": -0.0136974,
        "meta_mean_motion_ddot": 0,
        "tle_line1": "1 67032U 25294C   25354.58336806 -.01369740  00000+0 -56480-2 0  9994",
        "tle_line2": "2 67032  42.9997 134.2243 0001634 267.6416  70.9532 15.87677151  1370"
      },
      "geometry": {
        "type": "Point",
        "coordinates": [
          4.728825369396382,
          -36.5586551803724
        ]
      }
    },
    {
      "type": "Feature",
      "properties": {
        "norad_id": 67033,
        "name": "STARLINK-36137",
        "group": "last-30-days",
        "lat": -35.67841920864681,
        "lon": 2.4051535300172504,
        "alt_km": 313.9733363398409,
        "timestamp": "2025-12-20T22:39:09.409871+00:00",
        "meta_object_name": "STARLINK-36137",
        "meta_object_id": "2025-294D",
        "meta_epoch": "2025-12-20T14:00:03.000384",
        "meta_mean_motion": 15.87641018,
        "meta_eccentricity": 0.00016788,
        "meta_inclination": 42.9997,
        "meta_ra_of_asc_node": 134.2297,
        "meta_arg_of_pericenter": 269.9098,
        "meta_mean_anomaly": 66.6483,
        "meta_ephemeris_type": 0,
        "meta_classification_type": "U",
        "meta_norad_cat_id": 67033,
        "meta_element_set_no": 999,
        "meta_rev_at_epoch": 137,
        "meta_bstar": -0.005613964,
        "meta_mean_motion_dot": -0.01360383,
        "meta_mean_motion_ddot": 0,
        "tle_line1": "1 67033U 25294D   25354.58336806 -.01360383  00000+0 -56140-2 0  9992",
        "tle_line2": "2 67033  42.9997 134.2297 0001678 269.9098  66.6483 15.87641018  1379"
      },
      "geometry": {
        "type": "Point",
        "coordinates": [
          2.4051535300172504,
          -35.67841920864681
        ]
      }
    },
    {
      "type": "Feature",
      "properties": {
        "norad_id": 67034,
        "name": "STARLINK-36140",
        "group": "last-30-days",
        "lat": -37.46174932319656,
        "lon": 7.311232041286097,
        "alt_km": 313.8025204209571,
        "timestamp": "2025-12-20T22:39:09.409880+00:00",
        "meta_object_name": "STARLINK-36140",
        "meta_object_id": "2025-294E",
        "meta_epoch": "2025-12-20T14:00:03.000384",
        "meta_mean_motion": 15.87703639,
        "meta_eccentricity": 0.0001718,
        "meta_inclination": 42.9997,
        "meta_ra_of_asc_node": 134.219,
        "meta_arg_of_pericenter": 266.9421,
        "meta_mean_anomaly": 73.8771,
        "meta_ephemeris_type": 0,
        "meta_classification_type": "U",
        "meta_norad_cat_id": 67034,
        "meta_element_set_no": 999,
        "meta_rev_at_epoch": 137,
        "meta_bstar": -0.0056504803,
        "meta_mean_motion_dot": -0.01371923,
        "meta_mean_motion_ddot": 0,
        "tle_line1": "1 67034U 25294E   25354.58336806 -.01371923  00000+0 -56505-2 0  9990",
        "tle_line2": "2 67034  42.9997 134.2190 0001718 266.9421  73.8771 15.87703639  1372"
      },
      "geometry": {
        "type": "Point",
        "coordinates": [
          7.311232041286097,
          -37.46174932319656
        ]
      }
    },
    {
      "type": "Feature",
      "properties": {
        "norad_id": 67035,
        "name": "STARLINK-36085",
        "group": "last-30-days",
        "lat": -39.11272035022441,
        "lon": 12.734326675161293,
        "alt_km": 313.7814670661928,
        "timestamp": "2025-12-20T22:39:09.409888+00:00",
        "meta_object_name": "STARLINK-36085",
        "meta_object_id": "2025-294F",
        "meta_epoch": "2025-12-20T14:00:03.000384",
        "meta_mean_motion": 15.87768049,
        "meta_eccentricity": 0.0001651,
        "meta_inclination": 42.9999,
        "meta_ra_of_asc_node": 134.2073,
        "meta_arg_of_pericenter": 270.2834,
        "meta_mean_anomaly": 75.0436,
        "meta_ephemeris_type": 0,
        "meta_classification_type": "U",
        "meta_norad_cat_id": 67035,
        "meta_element_set_no": 999,
        "meta_rev_at_epoch": 137,
        "meta_bstar": -0.005729988,
        "meta_mean_motion_dot": -0.01392635,
        "meta_mean_motion_ddot": 0,
        "tle_line1": "1 67035U 25294F   25354.58336806 -.01392635  00000+0 -57300-2 0  9998",
        "tle_line2": "2 67035  42.9999 134.2073 0001651 270.2834  75.0436 15.87768049  1375"
      },
      "geometry": {
        "type": "Point",
        "coordinates": [
          12.734326675161293,
          -39.11272035022441
        ]
      }
    },
    {
      "type": "Feature",
      "properties": {
        "norad_id": 67036,
        "name": "STARLINK-36125",
        "group": "last-30-days",
        "lat": -38.31773762335496,
        "lon": 9.98920164238168,
        "alt_km": 313.7716814553605,
        "timestamp": "2025-12-20T22:39:09.409899+00:00",
        "meta_object_name": "STARLINK-36125",
        "meta_object_id": "2025-294G",
        "meta_epoch": "2025-12-20T14:00:03.000384",
        "meta_mean_motion": 15.87736796,
        "meta_eccentricity": 0.00016778,
        "meta_inclination": 42.9998,
        "meta_ra_of_asc_node": 134.2133,
        "meta_arg_of_pericenter": 266.4697,
        "meta_mean_anomaly": 76.5985,
        "meta_ephemeris_type": 0,
        "meta_classification_type": "U",
        "meta_norad_cat_id": 67036,
        "meta_element_set_no": 999,
        "meta_rev_at_epoch": 156,
        "meta_bstar": -0.0056869624,
        "meta_mean_motion_dot": -0.01381635,
        "meta_mean_motion_ddot": 0,
        "tle_line1": "1 67036U 25294G   25354.58336806 -.01381635  00000+0 -56870-2 0  9998",
        "tle_line2": "2 67036  42.9998 134.2133 0001677 266.4697  76.5985 15.87736796  1564"
      },
      "geometry": {
        "type": "Point",
        "coordinates": [
          9.98920164238168,
          -38.31773762335496
        ]
      }
    },
    {
      "type": "Feature",
      "properties": {
        "norad_id": 67037,
        "name": "STARLINK-35732",
        "group": "last-30-days",
        "lat": -39.89159733329499,
        "lon": 15.745863205535162,
        "alt_km": 313.6999871897633,
        "timestamp": "2025-12-20T22:39:09.409908+00:00",
        "meta_object_name": "STARLINK-35732",
        "meta_object_id": "2025-294H",
        "meta_epoch": "2025-12-20T14:00:03.000384",
        "meta_mean_motion": 15.87796859,
        "meta_eccentricity": 0.00016669,
        "meta_inclination": 42.9998,
        "meta_ra_of_asc_node": 134.2015,
        "meta_arg_of_pericenter": 268.2026,
        "meta_mean_anomaly": 79.5479,
        "meta_ephemeris_type": 0,
        "meta_classification_type": "U",
        "meta_norad_cat_id": 67037,
        "meta_element_set_no": 999,
        "meta_rev_at_epoch": 148,
        "meta_bstar": -0.0057539042,
        "meta_mean_motion_dot": -0.01399479,
        "meta_mean_motion_ddot": 0,
        "tle_line1": "1 67037U 25294H   25354.58336806 -.01399479  00000+0 -57539-2 0  9997",
        "tle_line2": "2 67037  42.9998 134.2015 0001666 268.2026  79.5479 15.87796859  1486"
      },
      "geometry": {
        "type": "Point",
        "coordinates": [
          15.745863205535162,
          -39.89159733329499
        ]
      }
    }
  ]
}